STARLINK-31675          
1 59548U 24074Q   26068.15009721 -.00003433  00000+0 -11533-3 0  9995
2 59548  43.0020 346.4129 0000091  29.6362 330.4495 15.27570707105936
TRANSPORTER-12 OBJECT BA
1 62657U 25009BA  26068.70118713  .00011330  00000+0  42733-3 0  9991
2 62657  97.3985 151.1390 0000403 234.6623 125.4579 15.27214003 63739
